NORAD_CAT_ID,OBJECT_NAME,OBJECT_TYPE,EPOCH,MEAN_MOTION,ECCENTRICITY,INCLINATION,RA_OF_ASC_NODE,ARG_OF_PERICENTER,MEAN_ANOMALY,BSTAR,MEAN_MOTION_DOT,MEAN_MOTION_DDOT,TLE_LINE0,TLE_LINE1,TLE_LINE2,SEMIMAJOR_AXIS,PERIOD,APOGEE,PERIGEE,DECAYED
53149.0,STARLINK-4021,PAYLOAD,2024-01-04 13:53:09,15.08843529,0.0001235,53.2172,133.714,93.3974,266.7159,-2.7292e-05,-7.22e-06,0.0,0 STARLINK-4021,1 53149U 22083T   24004.57858567 -.00000722  00000-0 -27292-4 0  9997,2 53149  53.2172 133.7140 0001235  93.3974 266.7159 15.08843529 81324,6917.87,95.437,540.589,538.88,0.0
53149.0,STARLINK-4021,PAYLOAD,2024-01-04 15:28:32,15.0884581,0.000122,53.2167,133.4169,86.0805,274.0326,-3.4198e-07,-2.93e-06,0.0,0 STARLINK-4021,1 53149U 22083T   24004.64482332 -.00000293  00000-0 -34198-6 0  9996,2 53149  53.2167 133.4169 0001220  86.0805 274.0326 15.08845810 81965,6917.863,95.437,540.572,538.884,0.0
53149.0,STARLINK-4021,PAYLOAD,2024-01-05 12:08:34,15.08830486,0.0001404,53.2172,129.5515,96.6509,263.4643,3.3819e-05,2.5e-06,0.0,0 STARLINK-4021,1 53149U 22083T   24005.50595488  .00000250  00000-0  33819-4 0  9997,2 53149  53.2172 129.5515 0001404  96.6509 263.4643 15.08830486 82096,6917.909,95.438,540.746,538.803,0.0
53149.0,STARLINK-4021,PAYLOAD,2024-01-05 13:43:57,15.08831184,0.0001409,53.2173,129.2541,96.7416,263.3737,3.7356e-05,3.07e-06,0.0,0 STARLINK-4021,1 53149U 22083T   24005.57219472  .00000307  00000-0  37356-4 0  9993,2 53149  53.2173 129.2541 0001409  96.7416 263.3737 15.08831184 81476,6917.907,95.438,540.747,538.798,0.0
53149.0,STARLINK-4021,PAYLOAD,2024-01-06 11:59:21,15.08830051,0.0001633,53.2177,125.0907,110.1475,249.9693,0.00015792,2.226e-05,0.0,0 STARLINK-4021,1 53149U 22083T   24006.49955288  .00002226  00000-0  15792-3 0  9998,2 53149  53.2177 125.0907 0001633 110.1475 249.9693 15.08830051 81614,6917.911,95.438,540.905,538.646,0.0
53149.0,STARLINK-4021,PAYLOAD,2024-01-06 18:20:53,15.08846562,0.000134,53.2163,123.9011,89.4756,270.639,7.0424e-05,8.33e-06,0.0,0 STARLINK-4021,1 53149U 22083T   24006.76450724  .00000833  00000-0  70424-4 0  9999,2 53149  53.2163 123.9011 0001340  89.4756 270.6390 15.08846562 82280,6917.86,95.437,540.652,538.798,0.0
53149.0,STARLINK-4021,PAYLOAD,2024-01-07 11:50:08,15.08839943,0.0001747,53.2165,120.6313,81.0268,279.0922,5.7356e-05,6.25e-06,0.0,0 STARLINK-4021,1 53149U 22083T   24007.49315451  .00000625  00000-0  57356-4 0  9995,2 53149  53.2165 120.6313 0001747  81.0268 279.0922 15.08839943 82399,6917.881,95.438,540.954,538.537,0.0
53149.0,STARLINK-4021,PAYLOAD,2024-01-07 13:25:31,15.08839599,0.000147,53.2169,120.3347,91.5777,268.5384,6.1828e-05,6.96e-06,0.0,0 STARLINK-4021,1 53149U 22083T   24007.55939393  .00000696  00000-0  61828-4 0  9996,2 53149  53.2169 120.3347 0001470  91.5777 268.5384 15.08839599 81774,6917.882,95.438,540.764,538.73,0.0
53149.0,STARLINK-4021,PAYLOAD,2024-01-07 15:00:54,15.08842473,0.0001445,53.217,120.0369,86.3481,273.7676,8.867e-05,1.124e-05,0.0,0 STARLINK-4021,1 53149U 22083T   24007.62563180  .00001124  00000-0  88670-4 0  9992,2 53149  53.2170 120.0369 0001445  86.3481 273.7676 15.08842473 81781,6917.873,95.437,540.737,538.738,0.0
53149.0,STARLINK-4021,PAYLOAD,2024-01-08 13:16:18,15.08845492,0.0001575,53.2176,115.8762,75.4784,284.6383,2.3295e-05,8.3e-07,0.0,0 STARLINK-4021,1 53149U 22083T   24008.55299187  .00000083  00000-0  23295-4 0  9993,2 53149  53.2176 115.8762 0001575  75.4784 284.6383 15.08845492 81921,6917.864,95.437,540.818,538.639,0.0
53149.0,STARLINK-4021,PAYLOAD,2024-01-09 11:31:41,15.08889714,0.0001289,53.2176,111.714,74.3803,285.7332,-0.00063243,-0.00010353,0.0,0 STARLINK-4021,1 53149U 22083T   24009.48034356 -.00010353  00000-0 -63243-3 0  9990,2 53149  53.2176 111.7140 0001289  74.3803 285.7332 15.08889714 82694,6917.728,95.434,540.485,538.702,0.0
53149.0,STARLINK-4021,PAYLOAD,2024-01-09 13:07:04,15.08883148,0.0001457,53.2175,111.4164,71.3718,288.7433,-0.00053674,-8.83e-05,0.0,0 STARLINK-4021,1 53149U 22083T   24009.54658336 -.00008830  00000-0 -53674-3 0  9991,2 53149  53.2175 111.4164 0001457  71.3718 288.7433 15.08883148 82077,6917.749,95.435,540.621,538.606,0.0
53149.0,STARLINK-4021,PAYLOAD,2024-01-09 16:17:51,15.08850066,0.0001408,53.2175,110.8174,93.7184,266.3969,4.1654e-05,3.75e-06,0.0,0 STARLINK-4021,1 53149U 22083T   24009.67906540  .00000375  00000-0  41654-4 0  9998,2 53149  53.2175 110.8174 0001408  93.7184 266.3969 15.08850066 82723,6917.85,95.437,540.689,538.741,0.0
53149.0,STARLINK-4021,PAYLOAD,2024-01-10 11:22:29,15.08843714,0.0001526,53.2177,107.2479,104.9957,255.1204,-2.7158e-05,-7.2e-06,0.0,0 STARLINK-4021,1 53149U 22083T   24010.47395122 -.00000720  00000-0 -27158-4 0  9995,2 53149  53.2177 107.2479 0001526 104.9957 255.1204 15.08843714 82840,6917.869,95.437,540.79,538.678,0.0
53149.0,STARLINK-4021,PAYLOAD,2024-01-11 14:24:01,15.08857867,0.0001395,53.2179,102.1918,90.9359,269.1793,0.00012636,1.725e-05,0.0,0 STARLINK-4021,1 53149U 22083T   24011.60001635  .00001725  00000-0  12636-3 0  9992,2 53149  53.2179 102.1918 0001395  90.9359 269.1793 15.08857867 82389,6917.826,95.436,540.656,538.726,0.0
53149.0,STARLINK-4021,PAYLOAD,2024-01-11 15:59:24,15.08855933,0.0001379,53.2168,101.8956,100.9927,259.122,0.00011652,1.568e-05,0.0,0 STARLINK-4021,1 53149U 22083T   24011.66625667  .00001568  00000-0  11652-3 0  9997,2 53149  53.2168 101.8956 0001379 100.9927 259.1220 15.08855933 83028,6917.832,95.437,540.651,538.743,0.0
53149.0,STARLINK-4021,PAYLOAD,2024-01-12 04:42:31,15.08829263,0.000188,53.2181,99.5143,83.3258,276.7948,-3.5644e-05,-8.55e-06,0.0,0 STARLINK-4021,1 53149U 22083T   24012.19620156 -.00000855  00000-0 -35644-4 0  9992,2 53149  53.2181  99.5143 0001880  83.3258 276.7948 15.08829263 83100,6917.913,95.438,541.079,538.478,0.0
53149.0,STARLINK-4021,PAYLOAD,2024-01-12 11:04:03,15.08838468,0.0001836,53.218,98.3265,119.1312,240.9864,-1.4743e-05,-5.23e-06,0.0,0 STARLINK-4021,1 53149U 22083T   24012.46115398 -.00000523  00000-0 -14743-4 0  9998,2 53149  53.2180  98.3265 0001836 119.1312 240.9864 15.08838468 83142,6917.885,95.438,541.02,538.48,0.0
53149.0,STARLINK-4021,PAYLOAD,2024-01-12 12:39:27,15.08837347,0.0001509,53.2174,98.0302,99.9157,260.2006,-3.2977e-05,-8.13e-06,0.0,0 STARLINK-4021,1 53149U 22083T   24012.52739641 -.00000813  00000-0 -32977-4 0  9999,2 53149  53.2174  98.0302 0001509  99.9157 260.2006 15.08837347 82522,6917.888,95.438,540.797,538.71,0.0
53149.0,STARLINK-4021,PAYLOAD,2024-01-13 10:54:50,15.08844929,0.000141,53.2175,93.868,98.6285,261.4867,-7.0687e-05,-1.413e-05,0.0,0 STARLINK-4021,1 53149U 22083T   24013.45475606 -.00001413  00000-0 -70687-4 0  9997,2 53149  53.2175  93.8680 0001410  98.6285 261.4867 15.08844929 82661,6917.865,95.437,540.706,538.755,0.0
53149.0,STARLINK-4021,PAYLOAD,2024-01-13 15:40:59,15.08848711,0.0001461,53.2172,92.975,109.5883,250.5267,-1.6587e-05,-5.52e-06,0.0,0 STARLINK-4021,1 53149U 22083T   24013.65347115 -.00000552  00000-0 -16587-4 0  9994,2 53149  53.2172  92.9750 0001461 109.5883 250.5267 15.08848711 83328,6917.854,95.437,540.729,538.708,0.0
53149.0,STARLINK-4021,PAYLOAD,2024-01-14 04:24:05,15.08832011,0.0002855,53.218,90.5951,126.5261,233.5994,5.9268e-05,6.55e-06,0.0,0 STARLINK-4021,1 53149U 22083T   24014.18340143  .00000655  00000-0  59268-4 0  9992,2 53149  53.2180  90.5951 0002855 126.5261 233.5994 15.08832011 83404,6917.905,95.438,541.745,537.795,0.0
53149.0,STARLINK-4021,PAYLOAD,2024-01-14 12:21:01,15.0883736,0.0001729,53.2183,89.1134,60.9517,299.1649,0.00012682,1.731e-05,0.0,0 STARLINK-4021,1 53149U 22083T   24014.51460016  .00001731  00000-0  12682-3 0  9995,2 53149  53.2183  89.1134 0001729  60.9517 299.1649 15.08837360 83450,6917.888,95.438,540.95,538.557,0.0
53149.0,STARLINK-4021,PAYLOAD,2024-01-14 13:56:23,15.08847881,0.0001503,53.2176,88.8113,109.1886,250.9269,0.00017518,2.502e-05,0.0,0 STARLINK-4021,1 53149U 22083T   24014.58083053  .00002502  00000-0  17518-3 0  9994,2 53149  53.2176  88.8113 0001503 109.1886 250.9269 15.08847881 82833,6917.856,95.437,540.761,538.682,0.0
53149.0,STARLINK-4021,PAYLOAD,2024-01-14 23:28:42,15.08842964,0.0001533,53.2184,87.0326,102.4881,257.6283,0.00012402,1.686e-05,0.0,0 STARLINK-4021,1 53149U 22083T   24014.97827539  .00001686  00000-0  12402-3 0  9991,2 53149  53.2184  87.0326 0001533 102.4881 257.6283 15.08842964 83527,6917.871,95.437,540.797,538.676,0.0
53149.0,STARLINK-4021,PAYLOAD,2024-01-15 12:11:47,15.08849785,0.0001624,53.2184,84.6469,117.8896,242.2261,0.00016096,2.275e-05,0.0,0 STARLINK-4021,1 53149U 22083T   24015.50818874  .00002275  00000-0  16096-3 0  9991,2 53149  53.2184  84.6469 0001624 117.8896 242.2261 15.08849785 82977,6917.85,95.437,540.839,538.592,0.0
53149.0,STARLINK-4021,PAYLOAD,2024-01-16 04:05:40,15.08835594,0.0002143,53.2165,81.6814,71.1191,289.0033,2.8011e-05,1.58e-06,0.0,0 STARLINK-4021,1 53149U 22083T   24016.17060567  .00000158  00000-0  28011-4 0  9992,2 53149  53.2165  81.6814 0002143  71.1191 289.0033 15.08835594 83705,6917.894,95.438,541.241,538.276,0.0
53149.0,STARLINK-4021,PAYLOAD,2024-01-16 10:27:12,15.08843587,0.000177,53.217,80.4901,72.8684,287.2502,-9.7033e-05,-1.832e-05,0.0,0 STARLINK-4021,1 53149U 22083T   24016.43556478 -.00001832  00000-0 -97033-4 0  9994,2 53149  53.2170  80.4901 0001770  72.8684 287.2502 15.08843587 83112,6917.869,95.437,540.959,538.51,0.0
53149.0,STARLINK-4021,PAYLOAD,2024-01-17 10:17:59,15.08836756,0.0001287,53.2176,76.0283,77.0463,283.0673,9.8481e-05,1.28e-05,0.0,0 STARLINK-4021,1 53149U 22083T   24017.42916361  .00001280  00000-0  98481-4 0  9998,2 53149  53.2176  76.0283 0001287  77.0463 283.0673 15.08836756 83895,6917.89,95.438,540.646,538.865,0.0
53149.0,STARLINK-4021,PAYLOAD,2024-01-18 10:08:46,15.08842725,0.0001686,53.2186,71.567,110.0159,250.1014,9.438e-05,1.214e-05,0.0,0 STARLINK-4021,1 53149U 22083T   24018.42275997  .00001214  00000-0  94380-4 0  9993,2 53149  53.2186  71.5670 0001686 110.0159 250.1014 15.08842725 83414,6917.872,95.437,540.903,538.571,0.0
